CCSDS_OMM_VERS = 2.0
CREATION_DATE  = 
ORIGINATOR     = 

OBJECT_NAME    = ISS OBJECT XW
OBJECT_ID      = 1998-067XW
CENTER_NAME    = EARTH
REF_FRAME      = TEME
TIME_SYSTEM    = UTC
MEAN_ELEMENT_THEORY = SGP/SGP4

EPOCH          = 2026-02-19T12:26:45.820032
MEAN_MOTION    = 15.63906866
ECCENTRICITY   = .00033884
INCLINATION    = 51.6263
RA_OF_ASC_NODE = 157.8104
ARG_OF_PERICENTER = 356.5977
MEAN_ANOMALY   = 3.4994

EPHEMERIS_TYPE = 0
CLASSIFICATION_TYPE = U
NORAD_CAT_ID   = 66910
ELEMENT_SET_NO = 999
REV_AT_EPOCH   = 1233
BSTAR          = .11155638E-2
MEAN_MOTION_DOT = .107927E-2
MEAN_MOTION_DDOT = 0

CCSDS_OMM_VERS = 2.0
CREATION_DATE  = 
ORIGINATOR     = 

OBJECT_NAME    = ISS OBJECT XX
OBJECT_ID      = 1998-067XX
CENTER_NAME    = EARTH
REF_FRAME      = TEME
TIME_SYSTEM    = UTC
MEAN_ELEMENT_THEORY = SGP/SGP4

EPOCH          = 2026-02-19T12:21:39.663360
MEAN_MOTION    = 15.67669066
ECCENTRICITY   = .00051939
INCLINATION    = 51.6244
RA_OF_ASC_NODE = 157.0316
ARG_OF_PERICENTER = 349.8357
MEAN_ANOMALY   = 10.2534

EPHEMERIS_TYPE = 0
CLASSIFICATION_TYPE = U
NORAD_CAT_ID   = 66911
ELEMENT_SET_NO = 999
REV_AT_EPOCH   = 1233
BSTAR          = .13523447E-2
MEAN_MOTION_DOT = .153219E-2
MEAN_MOTION_DDOT = 0

CCSDS_OMM_VERS = 2.0
CREATION_DATE  = 
ORIGINATOR     = 

OBJECT_NAME    = ISS OBJECT XY
OBJECT_ID      = 1998-067XY
CENTER_NAME    = EARTH
REF_FRAME      = TEME
TIME_SYSTEM    = UTC
MEAN_ELEMENT_THEORY = SGP/SGP4

EPOCH          = 2026-02-19T12:56:18.006720
MEAN_MOTION    = 15.60432947
ECCENTRICITY   = .00014356
INCLINATION    = 51.6295
RA_OF_ASC_NODE = 158.7086
ARG_OF_PERICENTER = 4.3169
MEAN_ANOMALY   = 355.7836

EPHEMERIS_TYPE = 0
CLASSIFICATION_TYPE = U
NORAD_CAT_ID   = 66912
ELEMENT_SET_NO = 999
REV_AT_EPOCH   = 1231
BSTAR          = .84295004E-3
MEAN_MOTION_DOT = .70748E-3
MEAN_MOTION_DDOT = 0

CCSDS_OMM_VERS = 2.0
CREATION_DATE  = 
ORIGINATOR     = 

OBJECT_NAME    = ISS OBJECT XZ
OBJECT_ID      = 1998-067XZ
CENTER_NAME    = EARTH
REF_FRAME      = TEME
TIME_SYSTEM    = UTC
MEAN_ELEMENT_THEORY = SGP/SGP4

EPOCH          = 2026-02-19T13:23:58.452288
MEAN_MOTION    = 15.50320477
ECCENTRICITY   = .00102709
INCLINATION    = 51.6324
RA_OF_ASC_NODE = 161.8342
ARG_OF_PERICENTER = 126.3506
MEAN_ANOMALY   = 233.8432

EPHEMERIS_TYPE = 0
CLASSIFICATION_TYPE = U
NORAD_CAT_ID   = 67683
ELEMENT_SET_NO = 999
REV_AT_EPOCH   = 197
BSTAR          = .60149414E-3
MEAN_MOTION_DOT = .34476E-3
MEAN_MOTION_DDOT = 0

CCSDS_OMM_VERS = 2.0
CREATION_DATE  = 
ORIGINATOR     = 

OBJECT_NAME    = GXIBA-1
OBJECT_ID      = 1998-067YA
CENTER_NAME    = EARTH
REF_FRAME      = TEME
TIME_SYSTEM    = UTC
MEAN_ELEMENT_THEORY = SGP/SGP4

EPOCH          = 2026-02-19T13:14:26.491200
MEAN_MOTION    = 15.51472052
ECCENTRICITY   = .00117896
INCLINATION    = 51.6315
RA_OF_ASC_NODE = 161.7905
ARG_OF_PERICENTER = 118.7570
MEAN_ANOMALY   = 241.4605

EPHEMERIS_TYPE = 0
CLASSIFICATION_TYPE = U
NORAD_CAT_ID   = 67684
ELEMENT_SET_NO = 999
REV_AT_EPOCH   = 197
BSTAR          = .10517293E-2
MEAN_MOTION_DOT = .63458E-3
MEAN_MOTION_DDOT = 0

CCSDS_OMM_VERS = 2.0
CREATION_DATE  = 
ORIGINATOR     = 

OBJECT_NAME    = CORAL
OBJECT_ID      = 1998-067YB
CENTER_NAME    = EARTH
REF_FRAME      = TEME
TIME_SYSTEM    = UTC
MEAN_ELEMENT_THEORY = SGP/SGP4

EPOCH          = 2026-02-19T11:49:22.298016
MEAN_MOTION    = 15.50514255
ECCENTRICITY   = .00121712
INCLINATION    = 51.6320
RA_OF_ASC_NODE = 162.1452
ARG_OF_PERICENTER = 122.1026
MEAN_ANOMALY   = 238.1146

EPHEMERIS_TYPE = 0
CLASSIFICATION_TYPE = U
NORAD_CAT_ID   = 67685
ELEMENT_SET_NO = 999
REV_AT_EPOCH   = 196
BSTAR          = .69034026E-3
MEAN_MOTION_DOT = .39975E-3
MEAN_MOTION_DDOT = 0

CCSDS_OMM_VERS = 2.0
CREATION_DATE  = 
ORIGINATOR     = 

OBJECT_NAME    = ISS OBJECT YC
OBJECT_ID      = 1998-067YC
CENTER_NAME    = EARTH
REF_FRAME      = TEME
TIME_SYSTEM    = UTC
MEAN_ELEMENT_THEORY = SGP/SGP4

EPOCH          = 2026-02-19T13:20:25.117728
MEAN_MOTION    = 15.50749233
ECCENTRICITY   = .0007764
INCLINATION    = 51.6326
RA_OF_ASC_NODE = 161.8181
ARG_OF_PERICENTER = 94.6252
MEAN_ANOMALY   = 265.5624

EPHEMERIS_TYPE = 0
CLASSIFICATION_TYPE = U
NORAD_CAT_ID   = 67686
ELEMENT_SET_NO = 999
REV_AT_EPOCH   = 197
BSTAR          = .78284739E-3
MEAN_MOTION_DOT = .45732E-3
MEAN_MOTION_DDOT = 0

CCSDS_OMM_VERS = 2.0
CREATION_DATE  = 
ORIGINATOR     = 

OBJECT_NAME    = LEOPARD
OBJECT_ID      = 1998-067YD
CENTER_NAME    = EARTH
REF_FRAME      = TEME
TIME_SYSTEM    = UTC
MEAN_ELEMENT_THEORY = SGP/SGP4

EPOCH          = 2026-02-19T13:22:55.593696
MEAN_MOTION    = 15.50439079
ECCENTRICITY   = .00078251
INCLINATION    = 51.6323
RA_OF_ASC_NODE = 161.8299
ARG_OF_PERICENTER = 97.0111
MEAN_ANOMALY   = 263.1768

EPHEMERIS_TYPE = 0
CLASSIFICATION_TYPE = U
NORAD_CAT_ID   = 67687
ELEMENT_SET_NO = 999
REV_AT_EPOCH   = 189
BSTAR          = .66306298E-3
MEAN_MOTION_DOT = .382E-3
MEAN_MOTION_DDOT = 0

CCSDS_OMM_VERS = 2.0
CREATION_DATE  = 
ORIGINATOR     = 

OBJECT_NAME    = ISS OBJECT YE
OBJECT_ID      = 1998-067YE
CENTER_NAME    = EARTH
REF_FRAME      = TEME
TIME_SYSTEM    = UTC
MEAN_ELEMENT_THEORY = SGP/SGP4

EPOCH          = 2026-02-19T13:21:07.372512
MEAN_MOTION    = 15.50645417
ECCENTRICITY   = .00077249
INCLINATION    = 51.6330
RA_OF_ASC_NODE = 161.8218
ARG_OF_PERICENTER = 94.7848
MEAN_ANOMALY   = 265.4023

EPHEMERIS_TYPE = 0
CLASSIFICATION_TYPE = U
NORAD_CAT_ID   = 67688
ELEMENT_SET_NO = 999
REV_AT_EPOCH   = 189
BSTAR          = .74278345E-3
MEAN_MOTION_DOT = .43193E-3
MEAN_MOTION_DDOT = 0

CCSDS_OMM_VERS = 2.0
CREATION_DATE  = 
ORIGINATOR     = 

OBJECT_NAME    = CREW DRAGON 12
OBJECT_ID      = 2026-031A
CENTER_NAME    = EARTH
REF_FRAME      = TEME
TIME_SYSTEM    = UTC
MEAN_ELEMENT_THEORY = SGP/SGP4

EPOCH          = 2026-02-19T13:41:39.876288
MEAN_MOTION    = 15.48140240
ECCENTRICITY   = .00086043
INCLINATION    = 51.6323
RA_OF_ASC_NODE = 161.9142
ARG_OF_PERICENTER = 112.9152
MEAN_ANOMALY   = 247.2745

EPHEMERIS_TYPE = 0
CLASSIFICATION_TYPE = U
NORAD_CAT_ID   = 67796
ELEMENT_SET_NO = 999
REV_AT_EPOCH   = 94
BSTAR          = .13586232E-3
MEAN_MOTION_DOT = .6828E-4
MEAN_MOTION_DDOT = 0

